{
  "type": "FeatureCollection",
  "features": [
    {
      "type": "Feature",
      "properties": {
        "norad_id": 30208,
        "name": "FENGYUN 1C DEB",
        "group": "fengyun-1c-debris",
        "lat": 79.80724529472549,
        "lon": -60.32487842076156,
        "alt_km": 828.0660317172624,
        "timestamp": "2025-12-21T20:41:08.235970+00:00",
        "meta_object_name": "FENGYUN 1C DEB",
        "meta_object_id": "1999-025VR",
        "meta_epoch": "2025-12-21T06:51:11.681568",
        "meta_mean_motion": 14.23544135,
        "meta_eccentricity": 0.0033019,
        "meta_inclination": 98.5617,
        "meta_ra_of_asc_node": 356.0308,
        "meta_arg_of_pericenter": 244.5876,
        "meta_mean_anomaly": 128.0451,
        "meta_ephemeris_type": 0,
        "meta_classification_type": "U",
        "meta_norad_cat_id": 30208,
        "meta_element_set_no": 999,
        "meta_rev_at_epoch": 97959,
        "meta_bstar": 0.00037818,
        "meta_mean_motion_dot": 8.22e-06,
        "meta_mean_motion_ddot": 0,
        "tle_line1": "1 30208U 99025VR  25355.28555187  .00000822  00000+0  37818-3 0  9990",
        "tle_line2": "2 30208  98.5617 356.0308 0033019 244.5876 128.0451 14.23544135979590"
      },
      "geometry": {
        "type": "Point",
        "coordinates": [
          -60.32487842076156,
          79.80724529472549
        ]
      }
    },
    {
      "type": "Feature",
      "properties": {
        "norad_id": 30209,
        "name": "FENGYUN 1C DEB",
        "group": "fengyun-1c-debris",
        "lat": 75.52714768613649,
        "lon": -44.00938718889697,
        "alt_km": 861.6854436938384,
        "timestamp": "2025-12-21T20:41:08.235979+00:00",
        "meta_object_name": "FENGYUN 1C DEB",
        "meta_object_id": "1999-025VS",
        "meta_epoch": "2025-12-21T12:25:02.135712",
        "meta_mean_motion": 14.12913177,
        "meta_eccentricity": 0.00388426,
        "meta_inclination": 98.7142,
        "meta_ra_of_asc_node": 352.1115,
        "meta_arg_of_pericenter": 213.4319,
        "meta_mean_anomaly": 273.9227,
        "meta_ephemeris_type": 0,
        "meta_classification_type": "U",
        "meta_norad_cat_id": 30209,
        "meta_element_set_no": 999,
        "meta_rev_at_epoch": 97330,
        "meta_bstar": 0.00026724596,
        "meta_mean_motion_dot": 4.58e-06,
        "meta_mean_motion_ddot": 0,
        "tle_line1": "1 30209U 99025VS  25355.51738583  .00000458  00000+0  26725-3 0  9990",
        "tle_line2": "2 30209  98.7142 352.1115 0038842 213.4319 273.9227 14.12913177973303"
      },
      "geometry": {
        "type": "Point",
        "coordinates": [
          -44.00938718889697,
          75.52714768613649
        ]
      }
    },
    {
      "type": "Feature",
      "properties": {
        "norad_id": 30210,
        "name": "FENGYUN 1C DEB",
        "group": "fengyun-1c-debris",
        "lat": -64.36916834423006,
        "lon": 65.49334439170448,
        "alt_km": 913.5285503430168,
        "timestamp": "2025-12-21T20:41:08.235988+00:00",
        "meta_object_name": "FENGYUN 1C DEB",
        "meta_object_id": "1999-025VT",
        "meta_epoch": "2025-12-21T14:56:42.408384",
        "meta_mean_motion": 14.08285233,
        "meta_eccentricity": 0.00568231,
        "meta_inclination": 99.1894,
        "meta_ra_of_asc_node": 45.5315,
        "meta_arg_of_pericenter": 112.0467,
        "meta_mean_anomaly": 50.0904,
        "meta_ephemeris_type": 0,
        "meta_classification_type": "U",
        "meta_norad_cat_id": 30210,
        "meta_element_set_no": 999,
        "meta_rev_at_epoch": 96882,
        "meta_bstar": 0.00052004317,
        "meta_mean_motion_dot": 8.56e-06,
        "meta_mean_motion_ddot": 0,
        "tle_line1": "1 30210U 99025VT  25355.62271306  .00000856  00000+0  52004-3 0  9990",
        "tle_line2": "2 30210  99.1894  45.5315 0056823 112.0467  50.0904 14.08285233968823"
      },
      "geometry": {
        "type": "Point",
        "coordinates": [
          65.49334439170448,
          -64.36916834423006
        ]
      }
    },
    {
      "type": "Feature",
      "properties": {
        "norad_id": 30212,
        "name": "FENGYUN 1C DEB",
        "group": "fengyun-1c-debris",
        "lat": 4.656638552932183,
        "lon": 42.282205839393036,
        "alt_km": 849.683939064189,
        "timestamp": "2025-12-21T20:41:08.235997+00:00",
        "meta_object_name": "FENGYUN 1C DEB",
        "meta_object_id": "1999-025VV",
        "meta_epoch": "2025-12-21T14:41:14.319456",
        "meta_mean_motion": 13.9706098,
        "meta_eccentricity": 0.00969993,
        "meta_inclination": 99.4566,
        "meta_ra_of_asc_node": 221.2474,
        "meta_arg_of_pericenter": 213.021,
        "meta_mean_anomaly": 146.487,
        "meta_ephemeris_type": 0,
        "meta_classification_type": "U",
        "meta_norad_cat_id": 30212,
        "meta_element_set_no": 999,
        "meta_rev_at_epoch": 96349,
        "meta_bstar": 0.0002258538,
        "meta_mean_motion_dot": 2.81e-06,
        "meta_mean_motion_ddot": 0,
        "tle_line1": "1 30212U 99025VV  25355.61197129  .00000281  00000+0  22585-3 0  9994",
        "tle_line2": "2 30212  99.4566 221.2474 0096999 213.0210 146.4870 13.97060980963496"
      },
      "geometry": {
        "type": "Point",
        "coordinates": [
          42.282205839393036,
          4.656638552932183
        ]
      }
    },
    {
      "type": "Feature",
      "properties": {
        "norad_id": 30213,
        "name": "FENGYUN 1C DEB",
        "group": "fengyun-1c-debris",
        "lat": 3.4258393329173247,
        "lon": 71.90235315777646,
        "alt_km": 899.0393936982518,
        "timestamp": "2025-12-21T20:41:08.236006+00:00",
        "meta_object_name": "FENGYUN 1C DEB",
        "meta_object_id": "1999-025VW",
        "meta_epoch": "2025-12-21T03:58:24.687264",
        "meta_mean_motion": 14.11618723,
        "meta_eccentricity": 0.00723621,
        "meta_inclination": 99.1225,
        "meta_ra_of_asc_node": 71.7458,
        "meta_arg_of_pericenter": 220.4798,
        "meta_mean_anomaly": 205.9124,
        "meta_ephemeris_type": 0,
        "meta_classification_type": "U",
        "meta_norad_cat_id": 30213,
        "meta_element_set_no": 999,
        "meta_rev_at_epoch": 96634,
        "meta_bstar": 0.0011918712,
        "meta_mean_motion_dot": 2.174e-05,
        "meta_mean_motion_ddot": 0,
        "tle_line1": "1 30213U 99025VW  25355.16556351  .00002174  00000+0  11919-2 0  9992",
        "tle_line2": "2 30213  99.1225  71.7458 0072362 220.4798 205.9124 14.11618723966348"
      },
      "geometry": {
        "type": "Point",
        "coordinates": [
          71.90235315777646,
          3.4258393329173247
        ]
      }
    },
    {
      "type": "Feature",
      "properties": {
        "norad_id": 30214,
        "name": "FENGYUN 1C DEB",
        "group": "fengyun-1c-debris",
        "lat": 80.67164717382953,
        "lon": -41.75780094919315,
        "alt_km": 777.5442281256192,
        "timestamp": "2025-12-21T20:41:08.236015+00:00",
        "meta_object_name": "FENGYUN 1C DEB",
        "meta_object_id": "1999-025VX",
        "meta_epoch": "2025-12-20T04:06:49.264128",
        "meta_mean_motion": 14.30979194,
        "meta_eccentricity": 0.00203736,
        "meta_inclination": 98.7243,
        "meta_ra_of_asc_node": 67.3499,
        "meta_arg_of_pericenter": 21.7717,
        "meta_mean_anomaly": 7.5824,
        "meta_ephemeris_type": 0,
        "meta_classification_type": "U",
        "meta_norad_cat_id": 30214,
        "meta_element_set_no": 999,
        "meta_rev_at_epoch": 97673,
        "meta_bstar": 0.0010820847,
        "meta_mean_motion_dot": 2.808e-05,
        "meta_mean_motion_ddot": 0,
        "tle_line1": "1 30214U 99025VX  25354.17140352  .00002808  00000+0  10821-2 0  9998",
        "tle_line2": "2 30214  98.7243  67.3499 0020373  21.7717   7.5824 14.30979194976738"
      },
      "geometry": {
        "type": "Point",
        "coordinates": [
          -41.75780094919315,
          80.67164717382953
        ]
      }
    },
    {
      "type": "Feature",
      "properties": {
        "norad_id": 30217,
        "name": "FENGYUN 1C DEB",
        "group": "fengyun-1c-debris",
        "lat": 41.79598890724103,
        "lon": -28.345423779186522,
        "alt_km": 718.4087005825731,
        "timestamp": "2025-12-21T20:41:08.236024+00:00",
        "meta_object_name": "FENGYUN 1C DEB",
        "meta_object_id": "1999-025WA",
        "meta_epoch": "2025-12-21T12:03:50.817600",
        "meta_mean_motion": 14.24845153,
        "meta_eccentricity": 0.01407129,
        "meta_inclination": 98.4322,
        "meta_ra_of_asc_node": 338.9298,
        "meta_arg_of_pericenter": 74.3666,
        "meta_mean_anomaly": 287.2992,
        "meta_ephemeris_type": 0,
        "meta_classification_type": "U",
        "meta_norad_cat_id": 30217,
        "meta_element_set_no": 999,
        "meta_rev_at_epoch": 98198,
        "meta_bstar": 0.00020968167,
        "meta_mean_motion_dot": 5.01e-06,
        "meta_mean_motion_ddot": 0,
        "tle_line1": "1 30217U 99025WA  25355.50267150  .00000501  00000+0  20968-3 0  9997",
        "tle_line2": "2 30217  98.4322 338.9298 0140712  74.3666 287.2992 14.24845153981983"
      },
      "geometry": {
        "type": "Point",
        "coordinates": [
          -28.345423779186522,
          41.79598890724103
        ]
      }
    }
  ]
}